OBJECT_NAME,OBJECT_ID,EPOCH,MEAN_MOTION,ECCENTRICITY,INCLINATION,RA_OF_ASC_NODE,ARG_OF_PERICENTER,MEAN_ANOMALY,EPHEMERIS_TYPE,CLASSIFICATION_TYPE,NORAD_CAT_ID,ELEMENT_SET_NO,REV_AT_EPOCH,BSTAR,MEAN_MOTION_DOT,MEAN_MOTION_DDOT
ONEWEB-0397,2021-132J,2026-07-17T14:36:48.517632,13.18687388,.0001669,87.9200,329.4062,99.9808,260.1512,0,U,50477,999,22562,.16958E-3,.8E-6,0
ONEWEB-0398,2021-132K,2026-07-17T17:30:57.821760,13.11415184,.000217,87.8891,14.9773,89.2449,270.8928,0,U,50478,999,21961,.18236E-3,.77E-6,0
ONEWEB-0399,2021-132L,2026-07-17T11:41:50.557344,13.11415944,.0001494,87.8894,15.0368,78.0708,282.0587,0,U,50479,999,21957,.13236E-2,.482E-5,0
ONEWEB-0400,2021-132M,2026-07-17T15:54:30.404160,13.18684722,.0002039,87.9202,329.3854,95.0119,265.1246,0,U,50480,999,22562,.84256E-4,.46E-6,0
ONEWEB-0401,2021-132N,2026-07-17T07:53:45.708864,13.18686592,.0001797,87.9202,329.4494,105.3566,254.7765,0,U,50481,999,22558,.71737E-4,.41E-6,0
ONEWEB-0402,2021-132P,2026-07-17T14:17:22.452000,13.18687994,.0001636,87.9200,329.3850,113.1613,246.9691,0,U,50482,999,22564,.18678E-3,.87E-6,0
ONEWEB-0403,2021-132Q,2026-07-17T07:36:45.910656,13.18686529,.0001826,87.9198,329.4648,93.8912,266.2429,0,U,50483,999,22556,.16345E-3,.77E-6,0
ONEWEB-0404,2021-132R,2026-07-17T11:14:58.482816,13.11418248,.0001786,87.8890,15.0374,80.7210,279.4119,0,U,50484,999,21966,.10231E-2,.375E-5,0
ONEWEB-0405,2021-132S,2026-07-17T07:56:11.261760,13.18684782,.0002369,87.9201,329.4475,95.9667,264.1735,0,U,50485,999,22596,.15272E-3,.73E-6,0
ONEWEB-0406,2021-132T,2026-07-16T20:48:28.065600,13.18686496,.00017122,87.9194,329.5541,82.0312,278.1014,0,U,50486,999,22553,.11994609E-3,.6E-6,0
ONEWEB-0407,2021-132U,2026-07-17T14:51:21.662208,13.18686155,.0001991,87.9201,329.3985,103.7704,256.3650,0,U,50487,999,22557,-.44185E-3,-.161E-5,0
ONEWEB-0409,2021-132V,2026-07-17T11:12:32.230944,13.11418421,.0001901,87.8892,15.0270,82.3596,277.7748,0,U,50488,999,21955,.69217E-3,.258E-5,0
ONEWEB-0412,2021-132W,2026-07-17T14:34:22.956096,13.18687297,.0001704,87.9198,329.4082,106.6969,253.4350,0,U,50489,999,22566,.12171E-3,.61E-6,0
ONEWEB-0413,2021-132X,2026-07-17T14:41:39.506784,13.18688737,.0001885,87.9190,329.4033,107.8028,252.3309,0,U,50490,999,22560,.51088E-3,.214E-5,0
ONEWEB-0414,2021-132Y,2026-07-17T14:19:48.684000,13.18687720,.0001711,87.9199,329.3914,99.8881,260.2444,0,U,50491,999,22563,.18983E-3,.88E-6,0
ONEWEB-0417,2021-132Z,2026-07-17T14:31:56.932320,13.18686704,.0001848,87.9193,329.4066,93.0171,267.1172,0,U,50492,999,22561,-.1581E-3,-.49E-6,0
ONEWEB-0418,2021-132AA,2026-07-17T14:46:19.365024,13.18686413,.0001861,87.9196,329.4062,90.1543,269.9802,0,U,50493,999,22567,.10508E-3,.54E-6,0
ONEWEB-0419,2021-132AB,2026-07-17T07:56:43.060416,13.18666001,.0002088,87.9199,329.4635,92.6717,267.4654,0,U,50494,999,22555,.13027E-3,.64E-6,0
ONEWEB-0420,2021-132AC,2026-07-17T08:54:26.438976,13.18684952,.0002042,87.9192,329.4553,104.0678,256.0681,0,U,50495,999,22555,.14676E-3,.71E-6,0
ONEWEB-0421,2021-132AD,2026-07-17T14:12:32.849568,13.18686171,.0001577,87.9194,329.4099,104.9047,255.2259,0,U,50496,999,22562,.1292E-3,.64E-6,0
ONEWEB-0424,2021-132AE,2026-07-17T15:05:57.091200,13.18687073,.0002208,87.9198,329.4026,92.5517,267.5868,0,U,50497,999,22565,.15737E-3,.75E-6,0
ONEWEB-0426,2021-132AF,2026-07-16T21:43:06.522240,13.18686449,.00013256,87.9200,329.5369,83.9003,276.2280,0,U,50498,999,22550,-.14478573E-3,-.44E-6,0
ONEWEB-0427,2021-132AG,2026-07-16T20:50:54.255264,13.18686702,.00018125,87.9200,329.5335,91.6684,268.4656,0,U,50499,999,22552,.90278829E-4,.48E-6,0
ONEWEB-0429,2021-132AH,2026-07-16T20:31:27.557184,13.18687374,.00019374,87.9191,329.5584,102.1055,258.0295,0,U,50500,999,22549,.14664944E-4,.19E-6,0
ONEWEB-0430,2021-132AJ,2026-07-17T14:27:04.641120,13.18688848,.000212,87.9192,329.4084,104.2067,255.9301,0,U,50501,999,22563,.23947E-5,.14E-6,0
ONEWEB-0432,2021-132AK,2026-07-17T15:51:53.545824,13.18686286,.000235,87.9199,329.3836,96.9766,263.1633,0,U,50502,999,22559,-.29915E-4,.1E-7,0
ONEWEB-0440,2021-132AL,2026-07-17T07:39:10.753344,13.18687301,.0001749,87.9200,329.4631,107.5416,252.5907,0,U,50503,999,22554,.19726E-3,.91E-6,0
ONEWEB-0450,2021-132AM,2026-07-17T07:29:40.260192,13.18687120,.0002025,87.9190,329.4666,103.0402,257.0956,0,U,50504,999,22557,.15233E-3,.73E-6,0
ONEWEB-0410,2022-012A,2026-07-17T17:50:47.777856,13.17650604,.0001605,87.9160,359.7811,47.5830,312.5437,0,U,51622,999,21772,.92806E-5,.16E-6,0
ONEWEB-0411,2022-012B,2026-07-17T11:31:09.414048,13.10374310,.0002341,87.8821,30.2313,95.0233,265.1162,0,U,51623,999,21325,-.17316E-2,-.592E-5,0
