ONEWEB-0397             
1 50477U 21132J   26198.60889488  .00000080  00000+0  16958-3 0  9998
2 50477  87.9200 329.4062 0001669  99.9808 260.1512 13.18687388225629
ONEWEB-0398             
1 50478U 21132K   26198.72983590  .00000077  00000+0  18236-3 0  9998
2 50478  87.8891  14.9773 0002170  89.2449 270.8928 13.11415184219618
ONEWEB-0399             
1 50479U 21132L   26198.48739071  .00000482  00000+0  13236-2 0  9999
2 50479  87.8894  15.0368 0001494  78.0708 282.0587 13.11415944219571
ONEWEB-0400             
1 50480U 21132M   26198.66285190  .00000046  00000+0  84256-4 0  9997
2 50480  87.9202 329.3854 0002039  95.0119 265.1246 13.18684722225625
ONEWEB-0401             
1 50481U 21132N   26198.32900126  .00000041  00000+0  71737-4 0  9999
2 50481  87.9202 329.4494 0001797 105.3566 254.7765 13.18686592225580
ONEWEB-0402             
1 50482U 21132P   26198.59539875  .00000087  00000+0  18678-3 0  9992
2 50482  87.9200 329.3850 0001636 113.1613 246.9691 13.18687994225641
ONEWEB-0403             
1 50483U 21132Q   26198.31719804  .00000077  00000+0  16345-3 0  9993
2 50483  87.9198 329.4648 0001826  93.8912 266.2429 13.18686529225569
ONEWEB-0404             
1 50484U 21132R   26198.46873244  .00000375  00000+0  10231-2 0  9997
2 50484  87.8890  15.0374 0001786  80.7210 279.4119 13.11418248219663
ONEWEB-0405             
1 50485U 21132S   26198.33068590  .00000073  00000+0  15272-3 0  9990
2 50485  87.9201 329.4475 0002369  95.9667 264.1735 13.18684782225967
ONEWEB-0406             
1 50486U 21132T   26197.86699150  .00000060  00000+0  11995-3 0  9994
2 50486  87.9194 329.5541 0001712  82.0312 278.1014 13.18686496225531
ONEWEB-0407             
1 50487U 21132U   26198.61900072 -.00000161  00000+0 -44185-3 0  9998
2 50487  87.9201 329.3985 0001991 103.7704 256.3650 13.18686155225576
ONEWEB-0409             
1 50488U 21132V   26198.46703971  .00000258  00000+0  69217-3 0  9999
2 50488  87.8892  15.0270 0001901  82.3596 277.7748 13.11418421219558
ONEWEB-0412             
1 50489U 21132W   26198.60721014  .00000061  00000+0  12171-3 0  9993
2 50489  87.9198 329.4082 0001704 106.6969 253.4350 13.18687297225662
ONEWEB-0413             
1 50490U 21132X   26198.61226281  .00000214  00000+0  51088-3 0  9992
2 50490  87.9190 329.4033 0001885 107.8028 252.3309 13.18688737225607
ONEWEB-0414             
1 50491U 21132Y   26198.59709125  .00000088  00000+0  18983-3 0  9999
2 50491  87.9199 329.3914 0001711  99.8881 260.2444 13.18687720225631
ONEWEB-0417             
1 50492U 21132Z   26198.60552005 -.00000049  00000+0 -15810-3 0  9990
2 50492  87.9193 329.4066 0001848  93.0171 267.1172 13.18686704225617
ONEWEB-0418             
1 50493U 21132AA  26198.61550191  .00000054  00000+0  10508-3 0  9999
2 50493  87.9196 329.4062 0001861  90.1543 269.9802 13.18686413225676
ONEWEB-0419             
1 50494U 21132AB  26198.33105394  .00000064  00000+0  13027-3 0  9990
2 50494  87.9199 329.4635 0002088  92.6717 267.4654 13.18666001225554
ONEWEB-0420             
1 50495U 21132AC  26198.37113934  .00000071  00000+0  14676-3 0  9993
2 50495  87.9192 329.4553 0002042 104.0678 256.0681 13.18684952225550
ONEWEB-0421             
1 50496U 21132AD  26198.59204687  .00000064  00000+0  12920-3 0  9996
2 50496  87.9194 329.4099 0001577 104.9047 255.2259 13.18686171225624
ONEWEB-0424             
1 50497U 21132AE  26198.62913300  .00000075  00000+0  15737-3 0  9991
2 50497  87.9198 329.4026 0002208  92.5517 267.5868 13.18687073225652
ONEWEB-0426             
1 50498U 21132AF  26197.90493660 -.00000044  00000+0 -14479-3 0  9994
2 50498  87.9200 329.5369 0001325  83.9003 276.2280 13.18686449225506
ONEWEB-0427             
1 50499U 21132AG  26197.86868351  .00000048  00000+0  90279-4 0  9998
2 50499  87.9200 329.5335 0001812  91.6684 268.4656 13.18686702225526
ONEWEB-0429             
1 50500U 21132AH  26197.85518006  .00000019  00000+0  14665-4 0  9992
2 50500  87.9191 329.5584 0001937 102.1055 258.0295 13.18687374225498
ONEWEB-0430             
1 50501U 21132AJ  26198.60213705  .00000014  00000+0  23947-5 0  9994
2 50501  87.9192 329.4084 0002120 104.2067 255.9301 13.18688848225632
ONEWEB-0432             
1 50502U 21132AK  26198.66103641  .00000001  00000+0 -29915-4 0  9995
2 50502  87.9199 329.3836 0002350  96.9766 263.1633 13.18686286225590
ONEWEB-0440             
1 50503U 21132AL  26198.31887446  .00000091  00000+0  19726-3 0  9996
2 50503  87.9200 329.4631 0001749 107.5416 252.5907 13.18687301225540
ONEWEB-0450             
1 50504U 21132AM  26198.31227153  .00000073  00000+0  15233-3 0  9999
2 50504  87.9190 329.4666 0002025 103.0402 257.0956 13.18687120225577
ONEWEB-0410             
1 51622U 22012A   26198.74360854  .00000016  00000+0  92806-5 0  9992
2 51622  87.9160 359.7811 0001605  47.5830 312.5437 13.17650604217729
ONEWEB-0411             
1 51623U 22012B   26198.47997007 -.00000592  00000+0 -17316-2 0  9990
2 51623  87.8821  30.2313 0002341  95.0233 265.1162 13.10374310213256
